<?xml version="1.0" encoding="UTF-8"?>
<ndm xmlns:xsi="http://www.w3.org/2001/XMLSchema-instance" xsi:noNamespaceSchemaLocation="https://sanaregistry.org/r/ndmxml_unqualified/ndmxml-2.0.0-master-2.0.xsd">
<omm id="CCSDS_OMM_VERS" version="2.0">
<header><CREATION_DATE/><ORIGINATOR/></header><body><segment><metadata><OBJECT_NAME>KUIPER-00035</OBJECT_NAME><OBJECT_ID>2025-088AA</OBJECT_ID><CENTER_NAME>EARTH</CENTER_NAME><REF_FRAME>TEME</REF_FRAME><TIME_SYSTEM>UTC</TIME_SYSTEM><MEAN_ELEMENT_THEORY>SGP4</MEAN_ELEMENT_THEORY></metadata><data><meanElements><EPOCH>2025-08-03T22:00:01.999584</EPOCH><MEAN_MOTION>14.96689948</MEAN_MOTION><ECCENTRICITY>.0003928</ECCENTRICITY><INCLINATION>51.8899</INCLINATION><RA_OF_ASC_NODE>357.8298</RA_OF_ASC_NODE><ARG_OF_PERICENTER>81.8632</ARG_OF_PERICENTER><MEAN_ANOMALY>182.2115</MEAN_ANOMALY></meanElements><tleParameters><EPHEMERIS_TYPE>0</EPHEMERIS_TYPE><CLASSIFICATION_TYPE>U</CLASSIFICATION_TYPE><NORAD_CAT_ID>63748</NORAD_CAT_ID><ELEMENT_SET_NO>999</ELEMENT_SET_NO><REV_AT_EPOCH>1524</REV_AT_EPOCH><BSTAR>.28216E-3</BSTAR><MEAN_MOTION_DOT>.2999E-4</MEAN_MOTION_DOT><MEAN_MOTION_DDOT>0</MEAN_MOTION_DDOT></tleParameters></data></segment></body></omm>
<omm id="CCSDS_OMM_VERS" version="2.0">
<header><CREATION_DATE/><ORIGINATOR/></header><body><segment><metadata><OBJECT_NAME>KUIPER-00037</OBJECT_NAME><OBJECT_ID>2025-088AB</OBJECT_ID><CENTER_NAME>EARTH</CENTER_NAME><REF_FRAME>TEME</REF_FRAME><TIME_SYSTEM>UTC</TIME_SYSTEM><MEAN_ELEMENT_THEORY>SGP4</MEAN_ELEMENT_THEORY></metadata><data><meanElements><EPOCH>2025-08-03T22:00:01.999584</EPOCH><MEAN_MOTION>14.98334562</MEAN_MOTION><ECCENTRICITY>.0005126</ECCENTRICITY><INCLINATION>51.8911</INCLINATION><RA_OF_ASC_NODE>357.0358</RA_OF_ASC_NODE><ARG_OF_PERICENTER>13.2774</ARG_OF_PERICENTER><MEAN_ANOMALY>177.9230</MEAN_ANOMALY></meanElements><tleParameters><EPHEMERIS_TYPE>0</EPHEMERIS_TYPE><CLASSIFICATION_TYPE>U</CLASSIFICATION_TYPE><NORAD_CAT_ID>63749</NORAD_CAT_ID><ELEMENT_SET_NO>999</ELEMENT_SET_NO><REV_AT_EPOCH>1604</REV_AT_EPOCH><BSTAR>.59943E-3</BSTAR><MEAN_MOTION_DOT>.6963E-4</MEAN_MOTION_DOT><MEAN_MOTION_DDOT>0</MEAN_MOTION_DDOT></tleParameters></data></segment></body></omm>
<omm id="CCSDS_OMM_VERS" version="2.0">
<header><CREATION_DATE/><ORIGINATOR/></header><body><segment><metadata><OBJECT_NAME>KUIPER-00038</OBJECT_NAME><OBJECT_ID>2025-088AC</OBJECT_ID><CENTER_NAME>EARTH</CENTER_NAME><REF_FRAME>TEME</REF_FRAME><TIME_SYSTEM>UTC</TIME_SYSTEM><MEAN_ELEMENT_THEORY>SGP4</MEAN_ELEMENT_THEORY></metadata><data><meanElements><EPOCH>2025-08-03T22:00:01.999584</EPOCH><MEAN_MOTION>15.32614128</MEAN_MOTION><ECCENTRICITY>.0005136</ECCENTRICITY><INCLINATION>51.8726</INCLINATION><RA_OF_ASC_NODE>349.5272</RA_OF_ASC_NODE><ARG_OF_PERICENTER>70.2990</ARG_OF_PERICENTER><MEAN_ANOMALY>242.6113</MEAN_ANOMALY></meanElements><tleParameters><EPHEMERIS_TYPE>0</EPHEMERIS_TYPE><CLASSIFICATION_TYPE>U</CLASSIFICATION_TYPE><NORAD_CAT_ID>63750</NORAD_CAT_ID><ELEMENT_SET_NO>999</ELEMENT_SET_NO><REV_AT_EPOCH>1514</REV_AT_EPOCH><BSTAR>-.34225E-1</BSTAR><MEAN_MOTION_DOT>-.100944E-1</MEAN_MOTION_DOT><MEAN_MOTION_DDOT>0</MEAN_MOTION_DDOT></tleParameters></data></segment></body></omm>
<omm id="CCSDS_OMM_VERS" version="2.0">
<header><CREATION_DATE/><ORIGINATOR/></header><body><segment><metadata><OBJECT_NAME>KUIPER-00039</OBJECT_NAME><OBJECT_ID>2025-134A</OBJECT_ID><CENTER_NAME>EARTH</CENTER_NAME><REF_FRAME>TEME</REF_FRAME><TIME_SYSTEM>UTC</TIME_SYSTEM><MEAN_ELEMENT_THEORY>SGP4</MEAN_ELEMENT_THEORY></metadata><data><meanElements><EPOCH>2025-08-03T19:11:40.015680</EPOCH><MEAN_MOTION>15.35188810</MEAN_MOTION><ECCENTRICITY>.0007039</ECCENTRICITY><INCLINATION>51.8673</INCLINATION><RA_OF_ASC_NODE>131.8056</RA_OF_ASC_NODE><ARG_OF_PERICENTER>258.6986</ARG_OF_PERICENTER><MEAN_ANOMALY>101.3209</MEAN_ANOMALY></meanElements><tleParameters><EPHEMERIS_TYPE>0</EPHEMERIS_TYPE><CLASSIFICATION_TYPE>U</CLASSIFICATION_TYPE><NORAD_CAT_ID>64500</NORAD_CAT_ID><ELEMENT_SET_NO>999</ELEMENT_SET_NO><REV_AT_EPOCH>759</REV_AT_EPOCH><BSTAR>.7391E-3</BSTAR><MEAN_MOTION_DOT>.25353E-3</MEAN_MOTION_DOT><MEAN_MOTION_DDOT>0</MEAN_MOTION_DDOT></tleParameters></data></segment></body></omm>
<omm id="CCSDS_OMM_VERS" version="2.0">
<header><CREATION_DATE/><ORIGINATOR/></header><body><segment><metadata><OBJECT_NAME>KUIPER-00040</OBJECT_NAME><OBJECT_ID>2025-134B</OBJECT_ID><CENTER_NAME>EARTH</CENTER_NAME><REF_FRAME>TEME</REF_FRAME><TIME_SYSTEM>UTC</TIME_SYSTEM><MEAN_ELEMENT_THEORY>SGP4</MEAN_ELEMENT_THEORY></metadata><data><meanElements><EPOCH>2025-08-03T22:00:01.999584</EPOCH><MEAN_MOTION>15.16125888</MEAN_MOTION><ECCENTRICITY>.0012703</ECCENTRICITY><INCLINATION>51.8785</INCLINATION><RA_OF_ASC_NODE>132.6692</RA_OF_ASC_NODE><ARG_OF_PERICENTER>268.9737</ARG_OF_PERICENTER><MEAN_ANOMALY>22.5099</MEAN_ANOMALY></meanElements><tleParameters><EPHEMERIS_TYPE>0</EPHEMERIS_TYPE><CLASSIFICATION_TYPE>U</CLASSIFICATION_TYPE><NORAD_CAT_ID>64501</NORAD_CAT_ID><ELEMENT_SET_NO>999</ELEMENT_SET_NO><REV_AT_EPOCH>572</REV_AT_EPOCH><BSTAR>-.87199E-3</BSTAR><MEAN_MOTION_DOT>-.17334E-3</MEAN_MOTION_DOT><MEAN_MOTION_DDOT>0</MEAN_MOTION_DDOT></tleParameters></data></segment></body></omm>
<omm id="CCSDS_OMM_VERS" version="2.0">
<header><CREATION_DATE/><ORIGINATOR/></header><body><segment><metadata><OBJECT_NAME>KUIPER-00041</OBJECT_NAME><OBJECT_ID>2025-134C</OBJECT_ID><CENTER_NAME>EARTH</CENTER_NAME><REF_FRAME>TEME</REF_FRAME><TIME_SYSTEM>UTC</TIME_SYSTEM><MEAN_ELEMENT_THEORY>SGP4</MEAN_ELEMENT_THEORY></metadata><data><meanElements><EPOCH>2025-08-03T20:03:28.502784</EPOCH><MEAN_MOTION>15.16322587</MEAN_MOTION><ECCENTRICITY>.000827</ECCENTRICITY><INCLINATION>51.8730</INCLINATION><RA_OF_ASC_NODE>133.4135</RA_OF_ASC_NODE><ARG_OF_PERICENTER>264.9127</ARG_OF_PERICENTER><MEAN_ANOMALY>95.0907</MEAN_ANOMALY></meanElements><tleParameters><EPHEMERIS_TYPE>0</EPHEMERIS_TYPE><CLASSIFICATION_TYPE>U</CLASSIFICATION_TYPE><NORAD_CAT_ID>64502</NORAD_CAT_ID><ELEMENT_SET_NO>999</ELEMENT_SET_NO><REV_AT_EPOCH>757</REV_AT_EPOCH><BSTAR>.7716E-3</BSTAR><MEAN_MOTION_DOT>.14877E-3</MEAN_MOTION_DOT><MEAN_MOTION_DDOT>0</MEAN_MOTION_DDOT></tleParameters></data></segment></body></omm>
<omm id="CCSDS_OMM_VERS" version="2.0">
<header><CREATION_DATE/><ORIGINATOR/></header><body><segment><metadata><OBJECT_NAME>KUIPER-00042</OBJECT_NAME><OBJECT_ID>2025-134D</OBJECT_ID><CENTER_NAME>EARTH</CENTER_NAME><REF_FRAME>TEME</REF_FRAME><TIME_SYSTEM>UTC</TIME_SYSTEM><MEAN_ELEMENT_THEORY>SGP4</MEAN_ELEMENT_THEORY></metadata><data><meanElements><EPOCH>2025-08-03T22:00:01.999584</EPOCH><MEAN_MOTION>15.24170371</MEAN_MOTION><ECCENTRICITY>.0009759</ECCENTRICITY><INCLINATION>51.8716</INCLINATION><RA_OF_ASC_NODE>131.8107</RA_OF_ASC_NODE><ARG_OF_PERICENTER>258.2063</ARG_OF_PERICENTER><MEAN_ANOMALY>107.6969</MEAN_ANOMALY></meanElements><tleParameters><EPHEMERIS_TYPE>0</EPHEMERIS_TYPE><CLASSIFICATION_TYPE>U</CLASSIFICATION_TYPE><NORAD_CAT_ID>64503</NORAD_CAT_ID><ELEMENT_SET_NO>999</ELEMENT_SET_NO><REV_AT_EPOCH>587</REV_AT_EPOCH><BSTAR>-.42347E-1</BSTAR><MEAN_MOTION_DOT>-.967716E-2</MEAN_MOTION_DOT><MEAN_MOTION_DDOT>0</MEAN_MOTION_DDOT></tleParameters></data></segment></body></omm>
<omm id="CCSDS_OMM_VERS" version="2.0">
<header><CREATION_DATE/><ORIGINATOR/></header><body><segment><metadata><OBJECT_NAME>KUIPER-00043</OBJECT_NAME><OBJECT_ID>2025-134E</OBJECT_ID><CENTER_NAME>EARTH</CENTER_NAME><REF_FRAME>TEME</REF_FRAME><TIME_SYSTEM>UTC</TIME_SYSTEM><MEAN_ELEMENT_THEORY>SGP4</MEAN_ELEMENT_THEORY></metadata><data><meanElements><EPOCH>2025-08-03T17:41:58.791264</EPOCH><MEAN_MOTION>15.34912747</MEAN_MOTION><ECCENTRICITY>.0007718</ECCENTRICITY><INCLINATION>51.8695</INCLINATION><RA_OF_ASC_NODE>132.1412</RA_OF_ASC_NODE><ARG_OF_PERICENTER>252.3013</ARG_OF_PERICENTER><MEAN_ANOMALY>107.7130</MEAN_ANOMALY></meanElements><tleParameters><EPHEMERIS_TYPE>0</EPHEMERIS_TYPE><CLASSIFICATION_TYPE>U</CLASSIFICATION_TYPE><NORAD_CAT_ID>64504</NORAD_CAT_ID><ELEMENT_SET_NO>999</ELEMENT_SET_NO><REV_AT_EPOCH>758</REV_AT_EPOCH><BSTAR>.31005E-3</BSTAR><MEAN_MOTION_DOT>.10299E-3</MEAN_MOTION_DOT><MEAN_MOTION_DDOT>0</MEAN_MOTION_DDOT></tleParameters></data></segment></body></omm>

</ndm>
