KUIPER-00035            
1 63748U 25088AA  25215.91668981  .00002999  00000+0  28216-3 0  9994
2 63748  51.8899 357.8298 0003928  81.8632 182.2115 14.96689948 15248
KUIPER-00037            
1 63749U 25088AB  25215.91668981  .00006963  00000+0  59943-3 0  9991
2 63749  51.8911 357.0358 0005126  13.2774 177.9230 14.98334562 16040
KUIPER-00038            
1 63750U 25088AC  25215.91668981 -.01009440  00000+0 -34225-1 0  9993
2 63750  51.8726 349.5272 0005136  70.2990 242.6113 15.32614128 15149
KUIPER-00039            
1 64500U 25134A   25215.79976870  .00025353  00000+0  73910-3 0  9998
2 64500  51.8673 131.8056 0007039 258.6986 101.3209 15.35188810  7591
KUIPER-00040            
1 64501U 25134B   25215.91668981 -.00017334  00000+0 -87199-3 0  9990
2 64501  51.8785 132.6692 0012703 268.9737  22.5099 15.16125888  5722
KUIPER-00041            
1 64502U 25134C   25215.83574656  .00014877  00000+0  77160-3 0  9991
2 64502  51.8730 133.4135 0008270 264.9127  95.0907 15.16322587  7570
KUIPER-00042            
1 64503U 25134D   25215.91668981 -.00967716  00000+0 -42347-1 0  9994
2 64503  51.8716 131.8107 0009759 258.2063 107.6969 15.24170371  5874
KUIPER-00043            
1 64504U 25134E   25215.73748601  .00010299  00000+0  31005-3 0  9997
2 64504  51.8695 132.1412 0007718 252.3013 107.7130 15.34912747  7580
